{
    "links": {
        "self": "http://www.neowsapp.com/rest/v1/neo/3775266?api_key=iIulBulltgU6a56xZRHN4H3l9WmuAYTsLGpBGhQ2"
    },
    "id": "3775266",
    "neo_reference_id": "3775266",
    "name": "(2017 ML)",
    "designation": "2017 ML",
    "nasa_jpl_url": "http://ssd.jpl.nasa.gov/sbdb.cgi?sstr=3775266",
    "absolute_magnitude_h": 25.2,
    "estimated_diameter": {
        "kilometers": {
            "estimated_diameter_min": 0.0242412481,
            "estimated_diameter_max": 0.0542050786
        },
        "meters": {
            "estimated_diameter_min": 24.2412481101,
            "estimated_diameter_max": 54.2050786336
        },
        "miles": {
            "estimated_diameter_min": 0.0150628086,
            "estimated_diameter_max": 0.0336814639
        },
        "feet": {
            "estimated_diameter_min": 79.5316564495,
            "estimated_diameter_max": 177.8381901842
        }
    },
    "is_potentially_hazardous_asteroid": false,
    "close_approach_data": [
        {
            "close_approach_date": "2017-06-18",
            "close_approach_date_full": "2017-Jun-18 04:11",
            "epoch_date_close_approach": 1497759060000,
            "relative_velocity": {
                "kilometers_per_second": "8.6185213818",
                "kilometers_per_hour": "31026.6769746197",
                "miles_per_hour": "19278.7704790352"
            },
            "miss_distance": {
                "astronomical": "0.0361643819",
                "lunar": "14.0679445591",
                "kilometers": "5410114.502106553",
                "miles": "3361689.2680063114"
            },
            "orbiting_body": "Earth"
        },
        {
            "close_approach_date": "2020-08-17",
            "close_approach_date_full": "2020-Aug-17 14:11",
            "epoch_date_close_approach": 1597673460000,
            "relative_velocity": {
                "kilometers_per_second": "20.7298081077",
                "kilometers_per_hour": "74627.3091877362",
                "miles_per_hour": "46370.5077561242"
            },
            "miss_distance": {
                "astronomical": "0.4902871049",
                "lunar": "190.7216838061",
                "kilometers": "73345906.581506563",
                "miles": "45575033.0073860494"
            },
            "orbiting_body": "Earth"
        }
    ],
    "orbital_data": {
        "orbit_id": "2",
        "orbit_determination_date": "2019-07-19 05:26:15",
        "first_observation_date": "2017-06-19",
        "last_observation_date": "2017-06-24",
        "data_arc_in_days": 5,
        "observations_used": 40,
        "orbit_uncertainty": "8",
        "minimum_orbit_intersection": ".0282073",
        "jupiter_tisserand_invariant": "3.535",
        "epoch_osculation": "2457926.5",
        "eccentricity": ".5081842377863967",
        "semi_major_axis": "2.123750370539363",
        "inclination": "9.730368233385287",
        "ascending_node_longitude": "91.06058417111227",
        "orbital_period": "1130.455909143737",
        "perihelion_distance": "1.044493907238239",
        "perihelion_argument": "181.5235401709886",
        "aphelion_distance": "3.203006833840486",
        "perihelion_time": "2457926.841879147986",
        "mean_anomaly": "359.8911266752826",
        "mean_motion": ".3184555868903209",
        "equinox": "J2000",
        "orbit_class": {
            "orbit_class_type": "AMO",
            "orbit_class_description": "Near-Earth asteroid orbits similar to that of 1221 Amor",
            "orbit_class_range": "1.017 AU < q (perihelion) < 1.3 AU"
        }
    },
    "is_sentry_object": false
}